{"type": "FeatureCollection", "features": [ {"type": "Feature", "properties": {"norad_id": 30688, "name": "FENGYUN 1C DEB", "group": "fengyun-1c-debris", "lat": -15.125773471167498, "lon": -131.28945691254143, "alt_km": 797.0540120675687, "timestamp": "2025-12-03T17:47:50.995573+00:00", "meta": {"OBJECT_NAME": "FENGYUN 1C DEB", "OBJECT_ID": "1999-025AQW", "EPOCH": "2025-12-03T03:37:05.668320", "MEAN_MOTION": 14.32560008, "ECCENTRICITY": 0.00149147, "INCLINATION": 98.7031, "RA_OF_ASC_NODE": 50.4905, "ARG_OF_PERICENTER": 346.5915, "MEAN_ANOMALY": 43.5186, "EPHEMERIS_TYPE": 0, "CLASSIFICATION_TYPE": "U", "NORAD_CAT_ID": 30688, "ELEMENT_SET_NO": 999, "REV_AT_EPOCH": 97123, "BSTAR": 0.0021990073, "MEAN_MOTION_DOT": 5.933e-05, "MEAN_MOTION_DDOT": 0}, "tle": {"line1": "1 30688U 99025AQW 25337.15076005  .00005933  00000+0  21990-2 0  9996", "line2": "2 30688  98.7031  50.4905 0014914 346.5915  43.5186 14.32560008971238"}}, "geometry": {"type": "Point", "coordinates": [-131.28945691254143, -15.125773471167498]}}, {"type": "Feature", "properties": {"norad_id": 30689, "name": "FENGYUN 1C DEB", "group": "fengyun-1c-debris", "lat": 33.18450524827222, "lon": 149.99078088318672, "alt_km": 774.3439510120706, "timestamp": "2025-12-03T17:47:50.995594+00:00", "meta": {"OBJECT_NAME": "FENGYUN 1C DEB", "OBJECT_ID": "1999-025AQX", "EPOCH": "2025-12-03T05:31:07.255776", "MEAN_MOTION": 14.11746209, "ECCENTRICITY": 0.0111496, "INCLINATION": 98.7074, "RA_OF_ASC_NODE": 323.742, "ARG_OF_PERICENTER": 130.1442, "MEAN_ANOMALY": 297.0244, "EPHEMERIS_TYPE": 0, "CLASSIFICATION_TYPE": "U", "NORAD_CAT_ID": 30689, "ELEMENT_SET_NO": 999, "REV_AT_EPOCH": 96756, "BSTAR": 0.00044428, "MEAN_MOTION_DOT": 8.16e-06, "MEAN_MOTION_DDOT": 0}, "tle": {"line1": "1 30689U 99025AQX 25337.22994509  .00000816  00000+0  44428-3 0  9990", "line2": "2 30689  98.7074 323.7420 0111496 130.1442 297.0244 14.11746209967567"}}, "geometry": {"type": "Point", "coordinates": [149.99078088318672, 33.18450524827222]}}, {"type": "Feature", "properties": {"norad_id": 30690, "name": "FENGYUN 1C DEB", "group": "fengyun-1c-debris", "lat": 39.97243349619303, "lon": 95.86576825489125, "alt_km": 823.262315988206, "timestamp": "2025-12-03T17:47:50.995605+00:00", "meta": {"OBJECT_NAME": "FENGYUN 1C DEB", "OBJECT_ID": "1999-025AQY", "EPOCH": "2025-12-03T01:49:40.421856", "MEAN_MOTION": 14.02265789, "ECCENTRICITY": 0.01044125, "INCLINATION": 99.1596, "RA_OF_ASC_NODE": 267.4241, "ARG_OF_PERICENTER": 102.4532, "MEAN_ANOMALY": 278.9121, "EPHEMERIS_TYPE": 0, "CLASSIFICATION_TYPE": "U", "NORAD_CAT_ID": 30690, "ELEMENT_SET_NO": 999, "REV_AT_EPOCH": 95572, "BSTAR": 0.0014473509, "MEAN_MOTION_DOT": 2.282e-05, "MEAN_MOTION_DDOT": 0}, "tle": {"line1": "1 30690U 99025AQY 25337.07616229  .00002282  00000+0  14474-2 0  9991", "line2": "2 30690  99.1596 267.4241 0104412 102.4532 278.9121 14.02265789955726"}}, "geometry": {"type": "Point", "coordinates": [95.86576825489125, 39.97243349619303]}}, {"type": "Feature", "properties": {"norad_id": 30691, "name": "FENGYUN 1C DEB", "group": "fengyun-1c-debris", "lat": -10.720408463300734, "lon": 168.02651989892624, "alt_km": 894.2165672729616, "timestamp": "2025-12-03T17:47:50.995616+00:00", "meta": {"OBJECT_NAME": "FENGYUN 1C DEB", "OBJECT_ID": "1999-025AQZ", "EPOCH": "2025-12-02T12:14:22.660800", "MEAN_MOTION": 13.89386426, "ECCENTRICITY": 0.01391392, "INCLINATION": 98.7431, "RA_OF_ASC_NODE": 348.5393, "ARG_OF_PERICENTER": 261.2387, "MEAN_ANOMALY": 254.2199, "EPHEMERIS_TYPE": 0, "CLASSIFICATION_TYPE": "U", "NORAD_CAT_ID": 30691, "ELEMENT_SET_NO": 999, "REV_AT_EPOCH": 94974, "BSTAR": 0.0014193693, "MEAN_MOTION_DOT": 1.83e-05, "MEAN_MOTION_DDOT": 0}, "tle": {"line1": "1 30691U 99025AQZ 25336.50998450  .00001830  00000+0  14194-2 0  9995", "line2": "2 30691  98.7431 348.5393 0139139 261.2387 254.2199 13.89386426949748"}}, "geometry": {"type": "Point", "coordinates": [168.02651989892624, -10.720408463300734]}}, {"type": "Feature", "properties": {"norad_id": 30693, "name": "FENGYUN 1C DEB", "group": "fengyun-1c-debris", "lat": -72.96215052935379, "lon": 113.21209646805433, "alt_km": 845.66593096221, "timestamp": "2025-12-03T17:47:50.995627+00:00", "meta": {"OBJECT_NAME": "FENGYUN 1C DEB", "OBJECT_ID": "1999-025ARB", "EPOCH": "2025-12-03T09:47:51.757152", "MEAN_MOTION": 14.13268745, "ECCENTRICITY": 0.0028833, "INCLINATION": 98.6856, "RA_OF_ASC_NODE": 322.8097, "ARG_OF_PERICENTER": 194.175, "MEAN_ANOMALY": 165.8616, "EPHEMERIS_TYPE": 0, "CLASSIFICATION_TYPE": "U", "NORAD_CAT_ID": 30693, "ELEMENT_SET_NO": 999, "REV_AT_EPOCH": 96803, "BSTAR": 0.00044245, "MEAN_MOTION_DOT": 7.9e-06, "MEAN_MOTION_DDOT": 0}, "tle": {"line1": "1 30693U 99025ARB 25337.40823793  .00000790  00000+0  44245-3 0  9999", "line2": "2 30693  98.6856 322.8097 0028833 194.1750 165.8616 14.13268745968037"}}, "geometry": {"type": "Point", "coordinates": [113.21209646805433, -72.96215052935379]}}, {"type": "Feature", "properties": {"norad_id": 30694, "name": "FENGYUN 1C DEB", "group": "fengyun-1c-debris", "lat": -51.8062444583896, "lon": -45.61068243248266, "alt_km": 528.5012404465706, "timestamp": "2025-12-03T17:47:50.995637+00:00", "meta": {"OBJECT_NAME": "FENGYUN 1C DEB", "OBJECT_ID": "1999-025ARC", "EPOCH": "2025-12-03T08:19:56.034048", "MEAN_MOTION": 14.85960567, "ECCENTRICITY": 0.013247, "INCLINATION": 99.0454, "RA_OF_ASC_NODE": 302.2589, "ARG_OF_PERICENTER": 324.917, "MEAN_ANOMALY": 34.3369, "EPHEMERIS_TYPE": 0, "CLASSIFICATION_TYPE": "U", "NORAD_CAT_ID": 30694, "ELEMENT_SET_NO": 999, "REV_AT_EPOCH": 99962, "BSTAR": 0.0022947, "MEAN_MOTION_DOT": 0.00023484, "MEAN_MOTION_DDOT": 0}, "tle": {"line1": "1 30694U 99025ARC 25337.34717632  .00023484  00000+0  22947-2 0  9996", "line2": "2 30694  99.0454 302.2589 0132470 324.9170  34.3369 14.85960567999621"}}, "geometry": {"type": "Point", "coordinates": [-45.61068243248266, -51.8062444583896]}}, {"type": "Feature", "properties": {"norad_id": 30696, "name": "FENGYUN 1C DEB", "group": "fengyun-1c-debris", "lat": 27.80072964938832, "lon": -148.66201116282562, "alt_km": 677.8602569858576, "timestamp": "2025-12-03T17:47:50.995648+00:00", "meta": {"OBJECT_NAME": "FENGYUN 1C DEB", "OBJECT_ID": "1999-025ARE", "EPOCH": "2025-12-03T02:16:54.665760", "MEAN_MOTION": 14.44663695, "ECCENTRICITY": 0.008994, "INCLINATION": 98.3905, "RA_OF_ASC_NODE": 26.2365, "ARG_OF_PERICENTER": 154.6507, "MEAN_ANOMALY": 236.8531, "EPHEMERIS_TYPE": 0, "CLASSIFICATION_TYPE": "U", "NORAD_CAT_ID": 30696, "ELEMENT_SET_NO": 999, "REV_AT_EPOCH": 98165, "BSTAR": 0.001204056, "MEAN_MOTION_DOT": 4.34e-05, "MEAN_MOTION_DDOT": 0}, "tle": {"line1": "1 30696U 99025ARE 25337.09507715  .00004340  00000+0  12041-2 0  9993", "line2": "2 30696  98.3905  26.2365 0089940 154.6507 236.8531 14.44663695981657"}}, "geometry": {"type": "Point", "coordinates": [-148.66201116282562, 27.80072964938832]}}, {"type": "Feature", "properties": {"norad_id": 30697, "name": "FENGYUN 1C DEB", "group": "fengyun-1c-debris", "lat": -31.335286788360804, "lon": -150.85760777364183, "alt_km": 790.2535652063634, "timestamp": "2025-12-03T17:47:50.995659+00:00", "meta": {"OBJECT_NAME": "FENGYUN 1C DEB", "OBJECT_ID": "1999-025ARF", "EPOCH": "2025-12-02T10:16:56.460864", "MEAN_MOTION": 14.13419891, "ECCENTRICITY": 0.00877171, "INCLINATION": 98.9085, "RA_OF_ASC_NODE": 33.3149, "ARG_OF_PERICENTER": 214.0225, "MEAN_ANOMALY": 159.6866, "EPHEMERIS_TYPE": 0, "CLASSIFICATION_TYPE": "U", "NORAD_CAT_ID": 30697, "ELEMENT_SET_NO": 999, "REV_AT_EPOCH": 96115, "BSTAR": 0.0019833151, "MEAN_MOTION_DOT": 3.823e-05, "MEAN_MOTION_DDOT": 0}, "tle": {"line1": "1 30697U 99025ARF 25336.42843126  .00003823  00000+0  19833-2 0  9990", "line2": "2 30697  98.9085  33.3149 0087717 214.0225 159.6866 14.13419891961159"}}, "geometry": {"type": "Point", "coordinates": [-150.85760777364183, -31.335286788360804]}}, {"type": "Feature", "properties": {"norad_id": 30699, "name": "FENGYUN 1C DEB", "group": "fengyun-1c-debris", "lat": -18.109192526447966, "lon": 99.40505093241532, "alt_km": 740.432696639723, "timestamp": "2025-12-03T17:47:50.995669+00:00", "meta": {"OBJECT_NAME": "FENGYUN 1C DEB", "OBJECT_ID": "1999-025ARH", "EPOCH": "2025-12-02T07:01:24.932352", "MEAN_MOTION": 14.46647919, "ECCENTRICITY": 0.0003688, "INCLINATION": 99.3116, "RA_OF_ASC_NODE": 94.7383, "ARG_OF_PERICENTER": 279.4254, "MEAN_ANOMALY": 80.6518, "EPHEMERIS_TYPE": 0, "CLASSIFICATION_TYPE": "U", "NORAD_CAT_ID": 30699, "ELEMENT_SET_NO": 999, "REV_AT_EPOCH": 97462, "BSTAR": 0.002914, "MEAN_MOTION_DOT": 0.00010486, "MEAN_MOTION_DDOT": 0}, "tle": {"line1": "1 30699U 99025ARH 25336.29264968  .00010486  00000+0  29140-2 0  9993", "line2": "2 30699  99.3116  94.7383 0003688 279.4254  80.6518 14.46647919974627"}}, "geometry": {"type": "Point", "coordinates": [99.40505093241532, -18.109192526447966]}}, {"type": "Feature", "properties": {"norad_id": 30700, "name": "FENGYUN 1C DEB", "group": "fengyun-1c-debris", "lat": 77.44288761330903, "lon": -131.2465625306741, "alt_km": 783.6281683744255, "timestamp": "2025-12-03T17:47:50.995679+00:00", "meta": {"OBJECT_NAME": "FENGYUN 1C DEB", "OBJECT_ID": "1999-025ARJ", "EPOCH": "2025-12-03T07:12:35.856000", "MEAN_MOTION": 14.23780889, "ECCENTRICITY": 0.0086694, "INCLINATION": 98.5427, "RA_OF_ASC_NODE": 5.885, "ARG_OF_PERICENTER": 170.6255, "MEAN_ANOMALY": 189.6567, "EPHEMERIS_TYPE": 0, "CLASSIFICATION_TYPE": "U", "NORAD_CAT_ID": 30700, "ELEMENT_SET_NO": 999, "REV_AT_EPOCH": 97435, "BSTAR": 0.00026931, "MEAN_MOTION_DOT": 5.98e-06, "MEAN_MOTION_DDOT": 0}, "tle": {"line1": "1 30700U 99025ARJ 25337.30041500  .00000598  00000+0  26931-3 0  9993", "line2": "2 30700  98.5427   5.8850 0086694 170.6255 189.6567 14.23780889974352"}}, "geometry": {"type": "Point", "coordinates": [-131.2465625306741, 77.44288761330903]}}]}